[{"OBJECT_NAME":"HONGHU 2","OBJECT_ID":"2023-193C","EPOCH":"2026-03-09T23:21:07.139520","MEAN_MOTION":15.21543878,"ECCENTRICITY":0.00399876,"INCLINATION":97.2779,"RA_OF_ASC_NODE":62.3901,"ARG_OF_PERICENTER":264.1736,"MEAN_ANOMALY":95.4941,"EPHEMERIS_TYPE":0,"CLASSIFICATION_TYPE":"U","NORAD_CAT_ID":58555,"ELEMENT_SET_NO":999,"REV_AT_EPOCH":8691,"BSTAR":0.0061775359,"MEAN_MOTION_DOT":0.00144707,"MEAN_MOTION_DDOT":0},{"OBJECT_NAME":"STARLINK-35978","OBJECT_ID":"2025-270P","EPOCH":"2026-03-09T22:22:11.626464","MEAN_MOTION":15.27611046,"ECCENTRICITY":0.00018639,"INCLINATION":43.0012,"RA_OF_ASC_NODE":54.7498,"ARG_OF_PERICENTER":267.9731,"MEAN_ANOMALY":92.0907,"EPHEMERIS_TYPE":0,"CLASSIFICATION_TYPE":"U","NORAD_CAT_ID":66601,"ELEMENT_SET_NO":999,"REV_AT_EPOCH":1758,"BSTAR":0.0013325163,"MEAN_MOTION_DOT":0.00036623,"MEAN_MOTION_DDOT":0}]
